{
  "Employees": [
    { "EmployeeID": "E1", "Name": "Alice Johnson", "City": "New York", "Department": "HR" },
    { "EmployeeID": "E2", "Name": "Bob Smith", "City": "Los Angeles", "Department": "Finance" },
    { "EmployeeID": "E3", "Name": "Charlie Brown", "City": "New York", "Department": "IT" },
    { "EmployeeID": "E4", "Name": "Alice Williams", "City": "Chicago", "Department": "HR" },
    { "EmployeeID": "E5", "Name": "David Miller", "City": "New York", "Department": "HR" },
    { "EmployeeID": "E6", "Name": "Emma Wilson", "City": "Chicago", "Department": "Marketing" },
    { "EmployeeID": "E7", "Name": "Alice Brown", "City": "New York", "Department": "IT" },
    { "EmployeeID": "E8", "Name": "Bob Johnson", "City": "Chicago", "Department": "HR" },
    { "EmployeeID": "E9", "Name": "Charlie Wilson", "City": "Los Angeles", "Department": "Finance" },
    { "EmployeeID": "E10", "Name": "Alice Johnson", "City": "New York", "Department": "IT" },
    { "EmployeeID": "E11", "Name": "Emma Johnson", "City": "Chicago", "Department": "HR" },
    { "EmployeeID": "E12", "Name": "David Smith", "City": "New York", "Department": "Finance" },
    { "EmployeeID": "E13", "Name": "Charlie Williams", "City": "Los Angeles", "Department": "Marketing" },
    { "EmployeeID": "E14", "Name": "Alice Brown", "City": "Chicago", "Department": "HR" },
    { "EmployeeID": "E15", "Name": "Emma Brown", "City": "New York", "Department": "Marketing" }
  ],
  "Addresses": [
    { "EmployeeID": "E1", "Street": "123 Main St", "City": "New York", "State": "NY", "Zip": "10001" },
    { "EmployeeID": "E2", "Street": "456 Elm St", "City": "Los Angeles", "State": "CA", "Zip": "90001" },
    { "EmployeeID": "E3", "Street": "789 Oak St", "City": "New York", "State": "NY", "Zip": "10002" },
    { "EmployeeID": "E4", "Street": "321 Maple St", "City": "Chicago", "State": "IL", "Zip": "60601" },
    { "EmployeeID": "E5", "Street": "654 Pine St", "City": "New York", "State": "NY", "Zip": "10003" },
    { "EmployeeID": "E6", "Street": "987 Birch St", "City": "Chicago", "State": "IL", "Zip": "60602" },
    { "EmployeeID": "E7", "Street": "135 Cedar St", "City": "New York", "State": "NY", "Zip": "10004" },
    { "EmployeeID": "E8", "Street": "246 Spruce St", "City": "Chicago", "State": "IL", "Zip": "60603" },
    { "EmployeeID": "E9", "Street": "357 Willow St", "City": "Los Angeles", "State": "CA", "Zip": "90002" },
    { "EmployeeID": "E10", "Street": "468 Beech St", "City": "New York", "State": "NY", "Zip": "10005" },
    { "EmployeeID": "E11", "Street": "579 Aspen St", "City": "Chicago", "State": "IL", "Zip": "60604" },
    { "EmployeeID": "E12", "Street": "681 Cherry St", "City": "New York", "State": "NY", "Zip": "10006" },
    { "EmployeeID": "E13", "Street": "792 Magnolia St", "City": "Los Angeles", "State": "CA", "Zip": "90003" },
    { "EmployeeID": "E14", "Street": "893 Hickory St", "City": "Chicago", "State": "IL", "Zip": "60605" },
    { "EmployeeID": "E15", "Street": "104 Juniper St", "City": "New York", "State": "NY", "Zip": "10007" }
  ]
}
